{"fetched_at":"2026-07-20T18:29:29.623Z","source":"https://celestrak.org/NORAD/elements/gp.php?NAME=JILIN&FORMAT=JSON","constellation":"jilin-1-early","records":[{"OBJECT_NAME":"JILIN-1","OBJECT_ID":"2015-057D","EPOCH":"2026-07-20T06:00:03.230496","CLASSIFICATION_TYPE":"U","MEAN_MOTION":14.78205769,"ECCENTRICITY":0.00176634,"INCLINATION":97.6523,"RA_OF_ASC_NODE":198.9781,"ARG_OF_PERICENTER":150.9418,"MEAN_ANOMALY":209.2781,"EPHEMERIS_TYPE":0,"NORAD_CAT_ID":40961,"ELEMENT_SET_NO":999,"REV_AT_EPOCH":58049,"BSTAR":0.000060793282,"MEAN_MOTION_DOT":0.00000393,"MEAN_MOTION_DDOT":0},{"OBJECT_NAME":"JILIN-1 03","OBJECT_ID":"2017-002B","EPOCH":"2026-07-20T07:36:13.730112","CLASSIFICATION_TYPE":"U","MEAN_MOTION":15.42310654,"ECCENTRICITY":0.00075856,"INCLINATION":97.1958,"RA_OF_ASC_NODE":207.9523,"ARG_OF_PERICENTER":65.7646,"MEAN_ANOMALY":294.4394,"EPHEMERIS_TYPE":0,"NORAD_CAT_ID":41914,"ELEMENT_SET_NO":999,"REV_AT_EPOCH":52696,"BSTAR":0.00017541696,"MEAN_MOTION_DOT":0.00007477,"MEAN_MOTION_DDOT":0},{"OBJECT_NAME":"JILIN-1 04","OBJECT_ID":"2017-074A","EPOCH":"2026-07-20T07:01:55.999200","CLASSIFICATION_TYPE":"U","MEAN_MOTION":15.43214769,"ECCENTRICITY":0.0005158,"INCLINATION":97.4874,"RA_OF_ASC_NODE":311.8115,"ARG_OF_PERICENTER":86.898,"MEAN_ANOMALY":273.2858,"EPHEMERIS_TYPE":0,"NORAD_CAT_ID":43022,"ELEMENT_SET_NO":999,"REV_AT_EPOCH":47937,"BSTAR":0.00018546629,"MEAN_MOTION_DOT":0.00008145,"MEAN_MOTION_DDOT":0},{"OBJECT_NAME":"JILIN-1 05","OBJECT_ID":"2017-074B","EPOCH":"2026-07-20T06:08:36.215808","CLASSIFICATION_TYPE":"U","MEAN_MOTION":15.34331703,"ECCENTRICITY":0.00065831,"INCLINATION":97.4878,"RA_OF_ASC_NODE":307.8717,"ARG_OF_PERICENTER":110.7872,"MEAN_ANOMALY":249.4076,"EPHEMERIS_TYPE":0,"NORAD_CAT_ID":43023,"ELEMENT_SET_NO":999,"REV_AT_EPOCH":47907,"BSTAR":0.00014800972,"MEAN_MOTION_DOT":0.0000484,"MEAN_MOTION_DDOT":0},{"OBJECT_NAME":"JILIN-1 06","OBJECT_ID":"2017-074C","EPOCH":"2026-07-20T05:35:18.497472","CLASSIFICATION_TYPE":"U","MEAN_MOTION":15.3403135,"ECCENTRICITY":0.00083317,"INCLINATION":97.4803,"RA_OF_ASC_NODE":304.8129,"ARG_OF_PERICENTER":119.2993,"MEAN_ANOMALY":240.9084,"EPHEMERIS_TYPE":0,"NORAD_CAT_ID":43024,"ELEMENT_SET_NO":999,"REV_AT_EPOCH":47890,"BSTAR":0.00011227418,"MEAN_MOTION_DOT":0.00003618,"MEAN_MOTION_DDOT":0},{"OBJECT_NAME":"JILIN-1 07","OBJECT_ID":"2018-008E","EPOCH":"2026-07-20T06:35:06.658368","CLASSIFICATION_TYPE":"U","MEAN_MOTION":15.35213156,"ECCENTRICITY":0.00063254,"INCLINATION":97.177,"RA_OF_ASC_NODE":220.3308,"ARG_OF_PERICENTER":305.3667,"MEAN_ANOMALY":54.6986,"EPHEMERIS_TYPE":0,"NORAD_CAT_ID":43159,"ELEMENT_SET_NO":999,"REV_AT_EPOCH":47007,"BSTAR":0.00014471175,"MEAN_MOTION_DOT":0.00004871,"MEAN_MOTION_DDOT":0},{"OBJECT_NAME":"JILIN-1 08","OBJECT_ID":"2018-008F","EPOCH":"2026-07-20T07:09:30.031200","CLASSIFICATION_TYPE":"U","MEAN_MOTION":15.34043702,"ECCENTRICITY":0.00047173,"INCLINATION":97.1806,"RA_OF_ASC_NODE":219.6324,"ARG_OF_PERICENTER":331.3577,"MEAN_ANOMALY":28.7407,"EPHEMERIS_TYPE":0,"NORAD_CAT_ID":43160,"ELEMENT_SET_NO":999,"REV_AT_EPOCH":47002,"BSTAR":0.00010409762,"MEAN_MOTION_DOT":0.00003353,"MEAN_MOTION_DDOT":0},{"OBJECT_NAME":"JILIN-1 09","OBJECT_ID":"2019-005B","EPOCH":"2026-07-20T06:41:51.000000","CLASSIFICATION_TYPE":"U","MEAN_MOTION":15.20765256,"ECCENTRICITY":0.00018571,"INCLINATION":97.4741,"RA_OF_ASC_NODE":295.9657,"ARG_OF_PERICENTER":24.6037,"MEAN_ANOMALY":335.5286,"EPHEMERIS_TYPE":0,"NORAD_CAT_ID":43943,"ELEMENT_SET_NO":999,"REV_AT_EPOCH":41417,"BSTAR":0.00011734812,"MEAN_MOTION_DOT":0.00002514,"MEAN_MOTION_DDOT":0},{"OBJECT_NAME":"JILIN-1 10","OBJECT_ID":"2019-005E","EPOCH":"2026-07-20T05:50:13.285248","CLASSIFICATION_TYPE":"U","MEAN_MOTION":15.26038744,"ECCENTRICITY":0.00090299,"INCLINATION":97.4793,"RA_OF_ASC_NODE":300.0569,"ARG_OF_PERICENTER":153.5177,"MEAN_ANOMALY":206.6524,"EPHEMERIS_TYPE":0,"NORAD_CAT_ID":43946,"ELEMENT_SET_NO":999,"REV_AT_EPOCH":41435,"BSTAR":0.00012613841,"MEAN_MOTION_DOT":0.00003175,"MEAN_MOTION_DDOT":0}]}
